[Satellite]
VERSION=1.1
NAME=OPTUS B3
NICKNAME=OPTUS B3
TLE1=1 23227U 94055A   15053.72625956 -.00000102  00000-0  00000+0 0  9998
TLE2=2 23227   5.9921  57.0001 0004380 253.8652 267.0431  1.00271343 75009
